NORAD_CAT_ID,OBJECT_NAME,OBJECT_TYPE,EPOCH,MEAN_MOTION,ECCENTRICITY,INCLINATION,RA_OF_ASC_NODE,ARG_OF_PERICENTER,MEAN_ANOMALY,BSTAR,MEAN_MOTION_DOT,MEAN_MOTION_DDOT,TLE_LINE0,TLE_LINE1,TLE_LINE2,SEMIMAJOR_AXIS,PERIOD,APOGEE,PERIGEE,DECAYED
52708.0,STARLINK-3962,PAYLOAD,2022-07-08 08:00:01,15.731840900000002,0.0002344,53.2168,45.9004,22.961,267.1717,-0.0001359,-0.00019639,0.0,0 STARLINK-3962,1 52708U 22053BE  22189.33334491 -.00019639  00000-0 -13590-3 0  9997,2 52708  53.2168  45.9004 0002344  22.9610 267.1717 15.73184090  8337,6727.941,91.534,351.3830000000001,348.22900000000016,0.0
52708.0,STARLINK-3962,PAYLOAD,2022-07-08 14:00:01,15.73257443,0.0002176,53.2167,44.6626,20.3188,246.6163,0.00055522,0.00078227,0.0,0 STARLINK-3962,1 52708U 22053BE  22189.58334491  .00078227  00000-0  55522-3 0  9991,2 52708  53.2167  44.6626 0002176  20.3188 246.6163 15.73257443  1307,6727.731,91.53,351.06,348.13199999999995,0.0
52708.0,STARLINK-3962,PAYLOAD,2022-07-08 22:00:01,15.73297253,0.000247,53.2166,43.015,19.8992,336.1232,-0.00061232,-0.00086054,0.0,0 STARLINK-3962,1 52708U 22053BE  22189.91668981 -.00086054  00000-0 -61232-3 0  9996,2 52708  53.2166  43.0150 0002470  19.8992 336.1232 15.73297253  8429,6727.618,91.528,351.145,347.821,0.0
52708.0,STARLINK-3962,PAYLOAD,2022-07-09 04:00:00,15.73269682,0.0002513,53.216,41.7775,20.5524,312.1436,-0.0012949,-0.0017910999999999,0.0,0 STARLINK-3962,1 52708U 22053BE  22190.16667824 -.00179110  00000-0 -12949-2 0  9996,2 52708  53.2160  41.7775 0002513  20.5524 312.1436 15.73269682  8468,6727.696999999999,91.529,351.25199999999984,347.871,0.0
52708.0,STARLINK-3962,PAYLOAD,2022-07-09 14:00:01,15.7310966,0.000232,53.2164,39.7142,29.586,144.2474,-0.00056914,-0.00079451,0.0,0 STARLINK-3962,1 52708U 22053BE  22190.58334491 -.00079451  00000-0 -56914-3 0  9991,2 52708  53.2164  39.7142 0002320  29.5860 144.2474 15.73109660  1306,6728.153,91.538,351.579,348.457,0.0
52708.0,STARLINK-3962,PAYLOAD,2022-07-09 20:00:01,15.73023037,0.0002516,53.2162,38.479,25.1992,125.2353,0.00031138,0.00042978,0.0,0 STARLINK-3962,1 52708U 22053BE  22190.83334491  .00042978  00000-0  31138-3 0  9992,2 52708  53.2162  38.4790 0002516  25.1992 125.2353 15.73023037  8567,6728.4,91.543,351.958,348.57199999999995,0.0
52708.0,STARLINK-3962,PAYLOAD,2022-07-10 06:00:00,15.73134703,0.000236,53.2165,36.4169,21.1047,330.2302,0.00017461,0.00023888,0.0,0 STARLINK-3962,1 52708U 22053BE  22191.25001157  .00023888  00000-0  17461-3 0  9991,2 52708  53.2165  36.4169 0002360  21.1047 330.2302 15.73134703  8635,6728.081,91.537,351.534,348.3590000000001,0.0
52708.0,STARLINK-3962,PAYLOAD,2022-07-10 14:00:01,15.7317866,0.0002252,53.2169,34.7666,20.7502,59.4388,0.00088173,0.00124872,0.0,0 STARLINK-3962,1 52708U 22053BE  22191.58334491  .00124872  00000-0  88173-3 0  9990,2 52708  53.2169  34.7666 0002252  20.7502  59.4388 15.73178660  8682,6727.956,91.534,351.336,348.306,0.0
52708.0,STARLINK-3962,PAYLOAD,2022-07-10 22:00:00,15.73256381,0.0002529,53.2167,33.1191,16.9318,152.2254,0.0003605,0.00050404,0.0,0 STARLINK-3962,1 52708U 22053BE  22191.91667824  .00050404  00000-0  36050-3 0  9992,2 52708  53.2167  33.1191 0002529  16.9318 152.2254 15.73256381  1308,6727.734,91.53,351.301,347.898,0.0
52708.0,STARLINK-3962,PAYLOAD,2022-07-11 06:00:00,15.73311695,0.0002456,53.2162,31.4681,20.3767,237.8013,-0.00059442,-0.00083632,0.0,0 STARLINK-3962,1 52708U 22053BE  22192.25001157 -.00083632  00000-0 -59442-3 0  9992,2 52708  53.2162  31.4681 0002456  20.3767 237.8013 15.73311695  8797,6727.5769999999975,91.527,351.094,347.789,0.0
52708.0,STARLINK-3962,PAYLOAD,2022-07-11 14:00:01,15.73258673,0.0002383,53.2164,29.8178,26.6041,320.5907,-0.00025578,-0.00036459,0.0,0 STARLINK-3962,1 52708U 22053BE  22192.58334491 -.00036459  00000-0 -25578-3 0  9996,2 52708  53.2164  29.8178 0002383  26.6041 320.5907 15.73258673  1302,6727.728,91.53,351.196,347.99,0.0
52708.0,STARLINK-3962,PAYLOAD,2022-07-11 22:00:00,15.73234662,0.0002569,53.2163,28.1703,21.1641,55.0283,-0.00036205,-0.00051209,0.0,0 STARLINK-3962,1 52708U 22053BE  22192.91667824 -.00051209  00000-0 -36205-3 0  9991,2 52708  53.2163  28.1703 0002569  21.1641  55.0283 15.73234662  1308,6727.795999999999,91.531,351.39,347.93300000000005,0.0
52708.0,STARLINK-3962,PAYLOAD,2022-07-12 06:00:00,15.73195952,0.0002419,53.2164,26.519,15.2893,149.8622,-0.00010273,-0.00015013,0.0,0 STARLINK-3962,1 52708U 22053BE  22193.25001157 -.00015013  00000-0 -10273-3 0  9990,2 52708  53.2164  26.5190 0002419  15.2893 149.8622 15.73195952  8942,6727.906999999997,91.533,351.399,348.144,0.0
52708.0,STARLINK-3962,PAYLOAD,2022-07-12 14:00:01,15.73210914,0.0002339,53.2168,24.8689,16.2702,237.7979,0.00040037,0.00055974,0.0,0 STARLINK-3962,1 52708U 22053BE  22193.58334491  .00055974  00000-0  40037-3 0  9995,2 52708  53.2168  24.8689 0002339  16.2702 237.7979 15.73210914  9007,6727.864000000001,91.533,351.30300000000005,348.155,0.0
52708.0,STARLINK-3962,PAYLOAD,2022-07-12 22:00:00,15.73269456,0.000263,53.2165,23.2212,13.3341,329.7031,-0.00017709,-0.00025479,0.0,0 STARLINK-3962,1 52708U 22053BE  22193.91667824 -.00025479  00000-0 -17709-3 0  9990,2 52708  53.2165  23.2212 0002630  13.3341 329.7031 15.73269456  1301,6727.696999999999,91.529,351.332,347.793,0.0
52708.0,STARLINK-3962,PAYLOAD,2022-07-13 04:00:00,15.73278077,0.0002554,53.2161,21.9829,12.498,307.2917,-0.00081333,-0.0011364,0.0,0 STARLINK-3962,1 52708U 22053BE  22194.16667824 -.00113640  00000-0 -81333-3 0  9990,2 52708  53.2161  21.9829 0002554  12.4980 307.2917 15.73278077  9097,6727.6730000000025,91.529,351.256,347.819,0.0
52708.0,STARLINK-3962,PAYLOAD,2022-07-13 14:00:01,15.73189016,0.0002454,53.2163,19.9201,19.1268,141.8582,-0.0001193,-0.00017325,0.0,0 STARLINK-3962,1 52708U 22053BE  22194.58334491 -.00017325  00000-0 -11930-3 0  9996,2 52708  53.2163  19.9201 0002454  19.1268 141.8582 15.73189016  1302,6727.926,91.534,351.4430000000001,348.14,0.0
52708.0,STARLINK-3962,PAYLOAD,2022-07-13 22:00:00,15.73125092,0.0002737,53.2163,18.2725,16.2805,233.5937,0.00016693,0.00022798,0.0,0 STARLINK-3962,1 52708U 22053BE  22194.91667824  .00022798  00000-0  16693-3 0  9991,2 52708  53.2163  18.2725 0002737  16.2805 233.5937 15.73125092  9219,6728.109,91.538,351.815,348.13199999999995,0.0
52708.0,STARLINK-3962,PAYLOAD,2022-07-14 14:00:01,15.73186325,0.0002566,53.2168,14.9716,16.6497,50.9347,0.00020851,0.00028728,0.0,0 STARLINK-3962,1 52708U 22053BE  22195.58334491  .00028728  00000-0  20851-3 0  9996,2 52708  53.2168  14.9716 0002566  16.6497  50.9347 15.73186325  1302,6727.934,91.534,351.526,348.0730000000001,0.0
52708.0,STARLINK-3962,PAYLOAD,2022-07-14 22:00:00,15.73205408,0.0002829,53.2168,13.3238,13.0983,143.4105,0.00012105,0.00016406,0.0,0 STARLINK-3962,1 52708U 22053BE  22195.91667824  .00016406  00000-0  12105-3 0  9995,2 52708  53.2168  13.3238 0002829  13.0983 143.4105 15.73205408  9365,6727.88,91.533,351.648,347.841,0.0
52708.0,STARLINK-3962,PAYLOAD,2022-07-15 14:00:01,15.73257001,0.0002647,53.2167,10.0231,11.7461,322.634,-0.00014442,-0.00020894,0.0,0 STARLINK-3962,1 52708U 22053BE  22196.58334491 -.00020894  00000-0 -14442-3 0  9994,2 52708  53.2167  10.0231 0002647  11.7461 322.6340 15.73257001  1309,6727.733,91.53,351.37800000000016,347.81699999999995,0.0
52708.0,STARLINK-3962,PAYLOAD,2022-07-15 22:00:00,15.73191913,0.0002917,53.2166,8.3753,12.8359,50.5481,0.00055873,0.00078513,0.0,0 STARLINK-3962,1 52708U 22053BE  22196.91667824  .00078513  00000-0  55873-3 0  9992,2 52708  53.2166   8.3753 0002917  12.8359  50.5481 15.73191913  1307,6727.918000000002,91.534,351.746,347.821,0.0
52708.0,STARLINK-3962,PAYLOAD,2022-07-16 06:00:00,15.732582999999998,0.0002754,53.217,6.7237,13.0288,139.3021,-0.00030942,-0.00043939,0.0,0 STARLINK-3962,1 52708U 22053BE  22197.25001157 -.00043939  00000-0 -30942-3 0  9997,2 52708  53.2170   6.7237 0002754  13.0288 139.3021 15.73258300  9571,6727.729,91.53,351.44699999999995,347.741,0.0
52708.0,STARLINK-3962,PAYLOAD,2022-07-16 14:00:01,15.73227216,0.0002839,53.2173,5.0744,14.9866,226.3215,-0.00046424,-0.00065362,0.0,0 STARLINK-3962,1 52708U 22053BE  22197.58334491 -.00065362  00000-0 -46424-3 0  9999,2 52708  53.2173   5.0744 0002839  14.9866 226.3215 15.73227216  1302,6727.818,91.532,351.593,347.773,0.0
52708.0,STARLINK-3962,PAYLOAD,2022-07-16 22:00:00,15.73205253,0.0003125,53.2171,3.4265,12.1668,318.1008,-3.0688e-05,-4.93e-05,0.0,0 STARLINK-3962,1 52708U 22053BE  22197.91667824 -.00004930  00000-0 -30688-4 0  9995,2 52708  53.2171   3.4265 0003125  12.1668 318.1008 15.73205253  1306,6727.88,91.533,351.848,347.64300000000014,0.0
52708.0,STARLINK-3962,PAYLOAD,2022-07-17 06:00:00,15.7316836,0.0002875,53.2171,1.775,10.7343,48.4743,0.00065749,0.00092562,0.0,0 STARLINK-3962,1 52708U 22053BE  22198.25001157  .00092562  00000-0  65749-3 0  9995,2 52708  53.2171   1.7750 0002875  10.7343  48.4743 15.73168360  9732,6727.985,91.535,351.785,347.916,0.0
52708.0,STARLINK-3962,PAYLOAD,2022-07-17 14:00:01,15.73252222,0.0002965,53.2171,0.1261,12.8847,135.2095,-0.00078893,-0.00110182,0.0,0 STARLINK-3962,1 52708U 22053BE  22198.58334491 -.00110182  00000-0 -78893-3 0  9996,2 52708  53.2171   0.1261 0002965  12.8847 135.2095 15.73252222  9785,6727.746,91.53,351.606,347.617,0.0
52708.0,STARLINK-3962,PAYLOAD,2022-07-17 22:00:00,15.73185416,0.0003163,53.2169,358.4756,10.8578,226.1818,-0.00064369,-0.00089973,0.0,0 STARLINK-3962,1 52708U 22053BE  22198.91667824 -.00089973  00000-0 -64369-3 0  9998,2 52708  53.2169 358.4756 0003163  10.8578 226.1818 15.73185416  1303,6727.937,91.534,351.93,347.6740000000001,0.0
52708.0,STARLINK-3962,PAYLOAD,2022-07-18 06:00:00,15.73140049,0.0003003,53.217,356.8269,11.0775,314.8193,0.00060772,0.00085332,0.0,0 STARLINK-3962,1 52708U 22053BE  22199.25001157  .00085332  00000-0  60772-3 0  9994,2 52708  53.2170 356.8269 0003003  11.0775 314.8193 15.73140049  9897,6728.066,91.537,351.952,347.911,0.0
